[{"OBJECT_NAME":"STARLINK-11162 [DTC]","OBJECT_ID":"2024-118L","EPOCH":"2026-03-09T15:57:45.289728","MEAN_MOTION":15.69691205,"ECCENTRICITY":0.00013864,"INCLINATION":53.1582,"RA_OF_ASC_NODE":221.075,"ARG_OF_PERICENTER":98.3408,"MEAN_ANOMALY":261.7767,"EPHEMERIS_TYPE":0,"CLASSIFICATION_TYPE":"U","NORAD_CAT_ID":60123,"ELEMENT_SET_NO":999,"REV_AT_EPOCH":9799,"BSTAR":0.0001619053,"MEAN_MOTION_DOT":0.00019055,"MEAN_MOTION_DDOT":0},{"OBJECT_NAME":"CZ-2D DEB","OBJECT_ID":"2005-024K","EPOCH":"2026-03-07T20:58:14.771712","MEAN_MOTION":15.70813446,"ECCENTRICITY":0.0005756,"INCLINATION":97.1809,"RA_OF_ASC_NODE":100.1703,"ARG_OF_PERICENTER":144.4044,"MEAN_ANOMALY":215.7604,"EPHEMERIS_TYPE":0,"CLASSIFICATION_TYPE":"U","NORAD_CAT_ID":35271,"ELEMENT_SET_NO":999,"REV_AT_EPOCH":8871,"BSTAR":0.00070506615,"MEAN_MOTION_DOT":0.00088213,"MEAN_MOTION_DDOT":0}]
